{
"type": "FeatureCollection",
"name": "mask",
"crs": { "type": "name", "properties": { "name": "urn:ogc:def:crs:EPSG::3763" } },
"features": [
{ "type": "Feature", "properties": { }, "geometry": { "type": "MultiPolygon", "coordinates": [ [ [ [ -57626.153178, 226282.2161864 ], [ -57561.3735169, 226321.4020975 ], [ -57557.903178, 226318.7993432 ], [ -57538.8163136, 226253.7304873 ], [ -57532.7432203, 226214.6891737 ], [ -57526.0917373, 226198.7834534 ], [ -57488.4963983, 226168.2733898 ], [ -57463.9148305, 226204.1335593 ], [ -57426.3194915, 226275.8538983 ], [ -57423.1383475, 226276.7214831 ], [ -57406.0758475, 226255.0318644 ], [ -57377.1563559, 226216.5689407 ], [ -57351.9963983, 226172.3221186 ], [ -57340.7177966, 226151.2108898 ], [ -57314.4010593, 226177.5276271 ], [ -57294.4466102, 226190.8305932 ], [ -57249.3322034, 226152.9460593 ], [ -57225.9074153, 226120.8454237 ], [ -57278.8300847, 226080.3581356 ], [ -57426.8978814, 225937.0620551 ], [ -57450.0334746, 225960.7760381 ], [ -57442.5144068, 225981.0196822 ], [ -57464.4932203, 225996.6362076 ], [ -57516.5483051, 226046.3777331 ], [ -57556.4572034, 226082.8162924 ], [ -57629.334322, 226021.7961653 ], [ -57686.0165254, 226089.9015678 ], [ -57649.867161, 226116.7966949 ], [ -57678.4974576, 226157.2839831 ], [ -57606.1987288, 226197.4820763 ], [ -57626.153178, 226282.2161864 ] ] ] ] } }
]
}
